[{"OBJECT_NAME":"STARLINK-3849","OBJECT_ID":"2022-045N","EPOCH":"2026-03-09T15:53:37.561920","MEAN_MOTION":15.08850155,"ECCENTRICITY":0.00011739,"INCLINATION":53.2171,"RA_OF_ASC_NODE":209.2445,"ARG_OF_PERICENTER":76.4234,"MEAN_ANOMALY":283.6889,"EPHEMERIS_TYPE":0,"CLASSIFICATION_TYPE":"U","NORAD_CAT_ID":52343,"ELEMENT_SET_NO":999,"REV_AT_EPOCH":21564,"BSTAR":-0.00015192366,"MEAN_MOTION_DOT":-2.706e-5,"MEAN_MOTION_DDOT":0},{"OBJECT_NAME":"YUNYAO-1 43","OBJECT_ID":"2025-059A","EPOCH":"2026-03-09T23:54:24.516576","MEAN_MOTION":15.10329109,"ECCENTRICITY":0.00157026,"INCLINATION":97.608,"RA_OF_ASC_NODE":250.9377,"ARG_OF_PERICENTER":132.1084,"MEAN_ANOMALY":228.1483,"EPHEMERIS_TYPE":0,"CLASSIFICATION_TYPE":"U","NORAD_CAT_ID":63344,"ELEMENT_SET_NO":999,"REV_AT_EPOCH":5332,"BSTAR":0.00032498885,"MEAN_MOTION_DOT":5.279e-5,"MEAN_MOTION_DDOT":0}]
